NORAD_CAT_ID,OBJECT_NAME,OBJECT_TYPE,EPOCH,MEAN_MOTION,ECCENTRICITY,INCLINATION,RA_OF_ASC_NODE,ARG_OF_PERICENTER,MEAN_ANOMALY,BSTAR,MEAN_MOTION_DOT,MEAN_MOTION_DDOT,TLE_LINE0,TLE_LINE1,TLE_LINE2,SEMIMAJOR_AXIS,PERIOD,APOGEE,PERIGEE,DECAYED
55431.0,STARLINK-5643,PAYLOAD,2023-05-31 00:00:02,14.99328536,0.0003181,69.9996,120.5437,266.4803,173.1051,-0.0023974,-0.00029328,0.0,0 STARLINK-5643,1 55431U 23014AS  23151.00002315 -.00029328  00000-0 -23974-2 0  9994,2 55431  69.9996 120.5437 0003181 266.4803 173.1051 14.99328536  1304,6947.107,96.043,571.182,566.762,0.0
55431.0,STARLINK-5643,PAYLOAD,2023-05-31 02:50:57,14.99299713,0.000303,69.9986,120.2447,269.2506,90.8306,3.0437e-05,2.79e-06,0.0,0 STARLINK-5643,1 55431U 23014AS  23151.11871924  .00000279  00000-0  30437-4 0  9992,2 55431  69.9986 120.2447 0003030 269.2506  90.8306 14.99299713 18798,6947.196,96.045,571.166,566.956,0.0
55431.0,STARLINK-5643,PAYLOAD,2023-05-31 07:39:10,14.993022,0.0003019,69.9986,119.7392,269.0647,91.0166,4.6008e-05,4.69e-06,0.0,0 STARLINK-5643,1 55431U 23014AS  23151.31886746  .00000469  00000-0  46008-4 0  9994,2 55431  69.9986 119.7392 0003019 269.0647  91.0166 14.99302200 19762,6947.188,96.045,571.15,566.956,0.0
55431.0,STARLINK-5643,PAYLOAD,2023-05-31 15:39:31,14.99310412,0.0003071,69.9987,118.8971,269.0446,91.0361,0.00012001,1.375e-05,0.0,0 STARLINK-5643,1 55431U 23014AS  23151.65244285  .00001375  00000-0  12001-3 0  9999,2 55431  69.9987 118.8971 0003071 269.0446  91.0361 14.99310412 18873,6947.163,96.044,571.161,566.894,0.0
55431.0,STARLINK-5643,PAYLOAD,2023-05-31 22:03:48,14.9930394,0.0002961,69.9981,118.2193,258.3463,101.7364,4.824e-05,4.96e-06,0.0,0 STARLINK-5643,1 55431U 23014AS  23151.91931511  .00000496  00000-0  48240-4 0  9991,2 55431  69.9981 118.2193 0002961 258.3463 101.7364 14.99303940 19853,6947.183,96.045,571.105,566.991,0.0
55431.0,STARLINK-5643,PAYLOAD,2023-06-01 02:52:02,14.99291206,0.0003214,69.9985,117.7173,266.8997,93.1795,-8.6351e-05,-1.15e-05,0.0,0 STARLINK-5643,1 55431U 23014AS  23152.11947755 -.00001150  00000-0 -86351-4 0  9996,2 55431  69.9985 117.7173 0003214 266.8997  93.1795 14.99291206 18949,6947.222,96.045,571.32,566.854,0.0
55431.0,STARLINK-5643,PAYLOAD,2023-06-01 07:40:15,14.9929129,0.0003188,69.9986,117.2132,266.7842,93.2952,-9.5486e-05,-1.262e-05,0.0,0 STARLINK-5643,1 55431U 23014AS  23152.31962927 -.00001262  00000-0 -95486-4 0  9999,2 55431  69.9986 117.2132 0003188 266.7842  93.2952 14.99291290 19915,6947.222,96.045,571.302,566.872,0.0
55431.0,STARLINK-5643,PAYLOAD,2023-06-02 02:53:07,14.99299837,0.0003234,69.9985,115.1904,267.8698,92.2091,-3.646e-05,-5.4e-06,0.0,0 STARLINK-5643,1 55431U 23014AS  23153.12022534 -.00000540  00000-0 -36460-4 0  9995,2 55431  69.9985 115.1904 0003234 267.8698  92.2091 14.99299837 19098,6947.195,96.045,571.307,566.814,0.0
55431.0,STARLINK-5643,PAYLOAD,2023-06-02 07:41:20,14.99300878,0.0003159,69.9992,114.6864,266.3416,93.7383,5.3649e-05,5.63e-06,0.0,0 STARLINK-5643,1 55431U 23014AS  23153.32037296  .00000563  00000-0  53649-4 0  9999,2 55431  69.9992 114.6864 0003159 266.3416  93.7383 14.99300878 20060,6947.192,96.045,571.252,566.863,0.0
55431.0,STARLINK-5643,PAYLOAD,2023-06-02 22:05:59,14.99294461,0.0003189,69.9988,113.1687,267.267,92.8125,6.9864e-05,7.61e-06,0.0,0 STARLINK-5643,1 55431U 23014AS  23153.92082602  .00000761  00000-0  69864-4 0  9992,2 55431  69.9988 113.1687 0003189 267.2670  92.8125 14.99294461 20151,6947.212,96.045,571.292,566.862,0.0
55431.0,STARLINK-5643,PAYLOAD,2023-06-03 07:42:25,14.99296983,0.0003039,69.9992,112.1586,265.5391,94.5422,0.00013045,1.503e-05,0.0,0 STARLINK-5643,1 55431U 23014AS  23154.32112469  .00001503  00000-0  13045-3 0  9996,2 55431  69.9992 112.1586 0003039 265.5391  94.5422 14.99296983 19279,6947.204,96.045,571.18,566.958,0.0
55431.0,STARLINK-5643,PAYLOAD,2023-06-04 14:07:47,14.99301685,0.0002916,69.9999,108.9581,267.1501,92.9325,-4.4442e-06,-1.48e-06,0.0,0 STARLINK-5643,1 55431U 23014AS  23155.58874475 -.00000148  00000-0 -44442-5 0  9990,2 55431  69.9999 108.9581 0002916 267.1501  92.9325 14.99301685 20405,6947.19,96.045,571.08,567.029,0.0
55431.0,STARLINK-5643,PAYLOAD,2023-06-04 22:08:09,14.99303268,0.000299,69.9996,108.1158,267.945,92.1368,-4.8289e-06,-1.53e-06,0.0,0 STARLINK-5643,1 55431U 23014AS  23155.92232717 -.00000153  00000-0 -48289-5 0  9994,2 55431  69.9996 108.1158 0002990 267.9450  92.1368 14.99303268 20450,6947.185,96.045,571.127,566.973,0.0
55431.0,STARLINK-5643,PAYLOAD,2023-06-05 06:08:30,14.99305202,0.0003009,69.9995,107.2733,268.5823,91.4991,1.5722e-05,9.9e-07,0.0,0 STARLINK-5643,1 55431U 23014AS  23156.25590855  .00000099  00000-0  15722-4 0  9993,2 55431  69.9995 107.2733 0003009 268.5823  91.4991 14.99305202 20501,6947.179,96.044,571.134,566.953,0.0
55431.0,STARLINK-5643,PAYLOAD,2023-06-06 01:21:21,14.99309953,0.000308,69.9993,105.2513,268.7552,91.3254,5.8796e-05,6.26e-06,0.0,0 STARLINK-5643,1 55431U 23014AS  23157.05650207  .00000626  00000-0  58796-4 0  9994,2 55431  69.9993 105.2513 0003080 268.7552  91.3254 14.99309953 19688,6947.164,96.044,571.169,566.889,0.0
55431.0,STARLINK-5643,PAYLOAD,2023-06-06 06:09:34,14.99314285,0.0003047,69.9994,104.746,268.5524,91.5287,0.00010225,1.158e-05,0.0,0 STARLINK-5643,1 55431U 23014AS  23157.25664689  .00001158  00000-0  10225-3 0  9990,2 55431  69.9994 104.7460 0003047 268.5524  91.5287 14.99314285 20655,6947.151,96.044,571.133,566.899,0.0
55431.0,STARLINK-5643,PAYLOAD,2023-06-06 23:46:23,14.99295958,0.0003066,69.9994,102.8926,269.1952,90.8856,-7.2527e-05,-9.81e-06,0.0,0 STARLINK-5643,1 55431U 23014AS  23157.99054672 -.00000981  00000-0 -72527-4 0  9995,2 55431  69.9994 102.8926 0003066 269.1952  90.8856 14.99295958 19820,6947.207,96.045,571.202,566.942,0.0
55431.0,STARLINK-5643,PAYLOAD,2023-06-07 06:10:41,14.99291068,0.0002841,70.0002,102.2193,266.4277,93.6558,-0.00013399,-1.732e-05,0.0,0 STARLINK-5643,1 55431U 23014AS  23158.25741964 -.00001732  00000-0 -13399-3 0  9998,2 55431  70.0002 102.2193 0002841 266.4277  93.6558 14.99291068 20801,6947.222,96.045,571.061,567.114,0.0
55431.0,STARLINK-5643,PAYLOAD,2023-06-07 20:35:19,14.9930203,0.0003316,69.9988,100.7021,266.7588,93.3192,-0.00014899,-1.917e-05,0.0,0 STARLINK-5643,1 55431U 23014AS  23158.85786442 -.00001917  00000-0 -14899-3 0  9995,2 55431  69.9988 100.7021 0003316 266.7588  93.3192 14.99302030 20892,6947.189,96.045,571.357,566.75,0.0
55431.0,STARLINK-5643,PAYLOAD,2023-06-08 02:59:36,14.9930512,0.0002824,70.0001,100.0286,263.8612,96.2226,-7.7738e-05,-1.045e-05,0.0,0 STARLINK-5643,1 55431U 23014AS  23159.12472778 -.00001045  00000-0 -77738-4 0  9994,2 55431  70.0001 100.0286 0002824 263.8612  96.2226 14.99305120 19998,6947.179,96.044,571.006,567.082,0.0
55431.0,STARLINK-5643,PAYLOAD,2023-06-08 06:11:45,14.99305661,0.0002885,70.0001,99.6923,268.1128,91.9702,-6.6575e-05,-9.08e-06,0.0,0 STARLINK-5643,1 55431U 23014AS  23159.25816042 -.00000908  00000-0 -66575-4 0  9998,2 55431  70.0001  99.6923 0002885 268.1128  91.9702 14.99305661 20955,6947.177,96.044,571.047,567.038,0.0
55431.0,STARLINK-5643,PAYLOAD,2023-06-08 23:48:33,14.99289915,0.0002917,70.0,97.8387,270.2611,89.8214,6.1255e-05,6.56e-06,0.0,0 STARLINK-5643,1 55431U 23014AS  23159.99205296  .00000656  00000-0  61255-4 0  9990,2 55431  70.0000  97.8387 0002917 270.2611  89.8214 14.99289915 20121,6947.226,96.045,571.118,567.065,0.0
55431.0,STARLINK-5643,PAYLOAD,2023-06-09 12:37:07,14.99297324,0.0002846,70.0001,96.4908,271.4056,88.6778,5.9797e-05,6.38e-06,0.0,0 STARLINK-5643,1 55431U 23014AS  23160.52578488  .00000638  00000-0  59797-4 0  9995,2 55431  70.0001  96.4908 0002846 271.4056  88.6778 14.99297324 21141,6947.203,96.045,571.045,567.091,0.0
55431.0,STARLINK-5643,PAYLOAD,2023-06-10 12:38:12,14.9929941,0.000274,70.0004,93.9645,269.4519,90.6327,1.2443e-05,5.8e-07,0.0,0 STARLINK-5643,1 55431U 23014AS  23161.52653721  .00000058  00000-0  12443-4 0  9993,2 55431  70.0004  93.9645 0002740 269.4519  90.6327 14.99299410 21295,6947.197,96.045,570.965,567.158,0.0
55431.0,STARLINK-5643,PAYLOAD,2023-06-11 12:39:18,14.99297632,0.0002716,70.0006,91.4374,270.7493,89.3355,-2.8459e-05,-4.42e-06,0.0,0 STARLINK-5643,1 55431U 23014AS  23162.52729270 -.00000442  00000-0 -28459-4 0  9990,2 55431  70.0006  91.4374 0002716 270.7493  89.3355 14.99297632 21445,6947.202,96.045,570.954,567.18,0.0
55431.0,STARLINK-5643,PAYLOAD,2023-06-11 19:03:35,14.99293495,0.0003102,70.0006,90.7637,272.2449,87.8355,0.00013321,1.536e-05,0.0,0 STARLINK-5643,1 55431U 23014AS  23162.79415654  .00001536  00000-0  13321-3 0  9991,2 55431  70.0006  90.7637 0003102 272.2449  87.8355 14.99293495 21487,6947.215,96.045,571.235,566.925,0.0
55431.0,STARLINK-5643,PAYLOAD,2023-06-12 12:40:23,14.99288302,0.0003124,70.0013,88.9101,270.9864,89.0937,-0.00013264,-1.716e-05,0.0,0 STARLINK-5643,1 55431U 23014AS  23163.52805010 -.00001716  00000-0 -13264-3 0  9990,2 55431  70.0013  88.9101 0003124 270.9864  89.0937 14.99288302 21593,6947.231,96.046,571.266,566.926,0.0
55431.0,STARLINK-5643,PAYLOAD,2023-06-13 04:41:06,14.99291628,0.0002945,69.9999,87.2241,268.211,91.8712,8.0997e-05,8.97e-06,0.0,0 STARLINK-5643,1 55431U 23014AS  23164.19521283  .00000897  00000-0  80997-4 0  9996,2 55431  69.9999  87.2241 0002945 268.2110  91.8712 14.99291628 20758,6947.221,96.045,571.132,567.04,0.0
55431.0,STARLINK-5643,PAYLOAD,2023-06-13 19:05:44,14.99301911,0.0003071,69.9999,85.7087,270.3778,89.7029,6.0501e-05,6.47e-06,0.0,0 STARLINK-5643,1 55431U 23014AS  23164.79565755  .00000647  00000-0  60501-4 0  9996,2 55431  69.9999  85.7087 0003071 270.3778  89.7029 14.99301911 20848,6947.189,96.045,571.187,566.92,0.0
55431.0,STARLINK-5643,PAYLOAD,2023-06-14 01:30:01,14.99318009,0.00028,70.0003,85.0335,268.3585,91.7254,-9.5207e-05,-1.259e-05,0.0,0 STARLINK-5643,1 55431U 23014AS  23165.06251820 -.00001259  00000-0 -95207-4 0  9995,2 55431  70.0003  85.0335 0002800 268.3585  91.7254 14.99318009 20881,6947.139,96.044,570.949,567.059,0.0
